P/2011 UA134 (Spacewatch-PANSTARRS),e,10.4405,40.4019,32.4160,5.610415,0.0741672,0.63008106,327.0834,12/01.0/2023,2000,g 17.5,4.0
# From MPEC 2023-UR6
P/2011 V1 (Boattini),e,7.3843,46.4816,269.6853,3.855023,0.1302158,0.54878120,246.1447,12/01.0/2023,2000,g 15.5,4.0
# From MPC 82718
P/2011 W1 (PANSTARRS),e,3.7174,161.8302,282.8348,4.670087,0.0976600,0.28849011,64.5024,12/01.0/2023,2000,g 11.5,4.0
# From MPC 79342
P/2011 Y2 (Boattini),e,6.3842,309.3408,131.9798,6.234831,0.0633092,0.71091723,271.2878,12/01.0/2023,2000,g 15.0,4.0
# From MPEC 2022-K19
P/2012 B1 (PANSTARRS),e,7.6098,36.2163,162.1832,6.534106,0.0590099,0.40943895,224.5387,12/01.0/2023,2000,g  9.0,4.0
# From MPC 78590
P/2012 C3 (PANSTARRS),e,9.0920,135.3677,344.9542,9.748681,0.0323806,0.63011148,359.9758,10/06.0/2011,2000,g 13.0,4.0
# From MPC 84931
P/2012 F2 (PANSTARRS),e,14.6987,226.9588,33.2697,6.340774,0.0617292,0.54031036,240.4254,12/01.0/2023,2000,g 12.0,4.0
# From MPEC 2022-ED3
P/2012 G1 (PANSTARRS),e,12.1690,283.2586,266.0874,4.164568,0.1159709,0.32903305,134.2495,12/01.0/2023,2000,g 15.0,4.0
# From MPC 80898
P/2012 K3 (Gibbs),e,13.1863,125.8179,172.2204,3.629974,0.1425111,0.42198362,223.4793,12/01.0/2023,2000,g 15.0,4.0
# From MPC 88326
P/2012 NJ (La Sagra),e,84.4906,315.6263,338.4095,8.467685,0.0399997,0.84645038,167.4346,12/01.0/2023,2000,g 14.5,4.0
# From MPC 81470
P/2012 O1 (McNaught),e,7.4277,91.9546,238.3038,3.542216,0.1478398,0.59390337,256.3709,12/01.0/2023,2000,g 17.5,4.0
# From MPC 80899
P/2012 O2 (McNaught),e,24.4639,120.6793,183.4641,3.627515,0.1426560,0.53149841,238.3887,12/01.0/2023,2000,g 17.0,4.0
# From MPC 82320
P/2012 T2 (PANSTARRS),e,12.5702,73.8810,310.8679,5.723613,0.0719778,0.16251989,277.6630,12/01.0/2023,2000,g 10.0,4.0
# From MPC 80900
P/2012 T3 (PANSTARRS),e,9.5577,114.3602,195.5255,6.152745,0.0645804,0.61613100,272.9770,12/01.0/2023,2000,g 15.0,4.0
# From MPC 82720
P/2012 U2 (PANSTARRS),e,10.7632,185.3331,228.3050,7.128500,0.0517853,0.50052033,208.5550,12/01.0/2023,2000,g 12.5,4.0
# From MPC 84024
P/2012 US27 (Siding Spring),e,39.3666,49.2300,0.8410,5.162915,0.0840159,0.64842610,332.6802,12/01.0/2023,2000,g 13.5,4.0
# From MPC 82721
P/2012 WA34 (Lemmon-PANSTARRS),e,6.0789,93.7405,356.4860,4.677701,0.0974216,0.34341638,14.1260,12/01.0/2023,2000,g 13.5,4.0
# From MPC 82721
P/2013 AL76 (Catalina),e,44.8735,146.0113,27.0085,6.499288,0.0594847,0.68673997,239.1011,12/01.0/2023,2000,g 16.0,4.0
# From MPC 91612
P/2013 G1 (Kowalski),e,5.4569,221.3110,51.5046,6.901709,0.0543587,0.51034484,198.3539,12/01.0/2023,2000,g 11.0,4.0
# From MPC 84025
P/2013 G4 (PANSTARRS),e,5.9173,339.5972,214.5967,4.435584,0.1055062,0.40903446,55.9130,12/01.0/2023,2000,g 15.0,4.0
# From MPC 91613
P/2013 J2 (McNaught),e,15.5092,289.3470,37.8678,6.224612,0.0634652,0.65674888,237.6061,12/01.0/2023,2000,g 13.0,4.0
# From MPC 86229
P/2013 N3 (PANSTARRS),e,2.1707,17.5318,323.9519,7.399022,0.0489714,0.59231551,174.9829,12/01.0/2023,2000,g 13.0,4.0
# From MPC 85834
P/2013 N5 (PANSTARRS),e,23.4501,187.1732,176.9508,6.797125,0.0556181,0.73229676,211.1234,12/01.0/2023,2000,g 17.0,4.0
# From MPC 85834
P/2013 P1 (PANSTARRS),e,18.7088,160.6309,138.2429,8.587555,0.0391651,0.60357982,153.9888,12/01.0/2023,2000,g 12.0,4.0
# From MPEC 2022-V95
P/2013 R3 (Catalina-PANSTARRS),e,0.8651,342.0418,11.2908,3.030903,0.1867868,0.27555140,339.3504,12/01.0/2023,2000,g 14.0,4.0
# From unp
P/2013 R3-A (Catalina-PANSTARRS),e,0.8642,341.9968,11.3696,3.030659,0.1868093,0.27548251,339.4176,12/01.0/2023,2000,g  9.0,4.0
# From MPEC 2015-M77
P/2013 R3-B (Catalina-PANSTARRS),e,0.8654,342.0526,11.3045,3.030877,0.1867891,0.27552751,339.3457,12/01.0/2023,2000,g  9.0,4.0
# From MPC 85835
P/2013 T1 (PANSTARRS),e,24.2911,10.1073,346.1690,5.855276,0.0695638,0.62412097,261.8357,12/01.0/2023,2000,g 16.5,4.0
# From MPC 86643
P/2013 T2 (Schwartz),e,9.4530,0.8209,345.5817,3.492545,0.1510049,0.50070879,220.6213,12/01.0/2023,2000,g 16.0,4.0
# From MPC 91613
P/2013 W1 (PANSTARRS),e,4.6977,117.8295,1.2219,3.486437,0.1514019,0.59330295,178.1260,12/01.0/2023,2000,g 17.5,4.0
# From MPC101095
P/2013 YG46 (Spacewatch),e,7.8583,48.8442,242.6819,3.278820,0.1660075,0.45539645,54.5210,12/01.0/2023,2000,g 10.0,4.0
# From MPC 89728
P/2014 A2 (Hill),e,24.5550,106.6475,356.1443,5.925668,0.0683279,0.64621622,253.0312,12/01.0/2023,2000,g 15.0,4.0
# From MPC 92981
P/2014 A3 (PANSTARRS),e,13.7165,230.0761,214.1217,4.607147,0.0996681,0.24639636,22.1397,12/01.0/2023,2000,g 12.0,4.0
# From MPC102095
P/2014 C1 (TOTAS),e,2.6919,167.8829,24.0025,3.029122,0.1869515,0.45186895,315.3401,12/01.0/2023,2000,g 15.5,4.0
# From MPEC 2022-WD2
C/2014 F3 (Sheppard-Trujillo),e,6.5230,326.0798,4.9363,14.45684,0.0179306,0.60440899,16.4255,12/01.0/2023,2000,g  6.0,4.0
# From MPC 98560
P/2014 L2 (NEOWISE),e,5.1972,149.3605,182.7153,6.307343,0.0622206,0.64727347,212.7593,12/01.0/2023,2000,g 12.0,4.0
# From MPC 90769
P/2014 L3 (Hill),e,6.2638,115.5201,178.6955,8.181497,0.0421168,0.77190635,145.0219,12/01.0/2023,2000,g 16.0,4.0
# From MPC 91614
P/2014 M4 (PANSTARRS),e,3.3446,263.2096,148.0594,5.865798,0.0693767,0.59605221,225.8315,12/01.0/2023,2000,g 15.0,4.0
# From MPEC 2022-K19
P/2014 MG4 (Spacewatch-PANSTARRS),e,9.3647,311.7074,298.9793,5.014012,0.0877861,0.25875088,335.3211,12/01.0/2023,2000,g  9.5,4.0
# From MPC 98560
P/2014 O3 (PANSTARRS),e,7.7914,87.6315,204.7935,7.582081,0.0472086,0.38338059,166.1028,12/01.0/2023,2000,g 10.5,4.0
# From MPEC 2023-W26
C/2014 OG392 (PANSTARRS),e,9.0328,145.8168,254.7272,12.25993,0.0229600,0.18648303,16.3530,12/01.0/2023,2000,g  6.0,4.0
# From MPC 91616
P/2014 U4 (PANSTARRS),e,6.4271,11.9224,347.8466,3.510294,0.1498611,0.46450581,152.9211,12/01.0/2023,2000,g 18.0,4.0
# From MPEC 2023-W26
C/2014 UN271 (Bernardinelli-Bernstein),h,01/18.9904/2031,95.4336,189.9083,326.1515,1.002678,10.953926,2000,2.5,3.2
# From MPC 95211
P/2014 V1 (PANSTARRS),e,22.5175,166.2136,177.6608,5.479480,0.0768414,0.53407658,248.0646,12/01.0/2023,2000,g 14.0,4.0
# From MPC105542
P/2014 W4 (PANSTARRS),e,15.2870,33.3451,67.6245,6.584162,0.0583382,0.35423650,168.5689,12/01.0/2023,2000,g 11.0,4.0
# From MPC 94281
P/2014 X1 (Elenin),e,26.0525,61.5549,33.8920,6.202144,0.0638104,0.71028190,207.6150,12/01.0/2023,2000,g 15.0,4.0
# From MPC 92275
P/2015 A3 (PANSTARRS),e,172.5470,277.4108,249.5710,7.817583,0.0450916,0.85028213,144.6113,12/01.0/2023,2000,g 20.0,4.0
# From MPC 99270
P/2015 B1 (PANSTARRS),e,18.0666,352.8876,188.7870,9.483645,0.0337475,0.36629866,101.4865,12/01.0/2023,2000,g  8.5,4.0
# From MPC109141
P/2015 B4 (Lemmon-PANSTARRS),e,1.7658,266.1020,227.1491,8.510410,0.0396989,0.56139133,127.9087,12/01.0/2023,2000,g 11.0,4.0
# From MPC101096
P/2015 C1 (TOTAS-Gibbs),e,13.9394,348.7866,178.0256,6.567791,0.0585565,0.56249905,184.0967,12/01.0/2023,2000,g 12.5,4.0
# From MPC109141
P/2015 D5 (Kowalski),e,20.5479,74.0841,39.6018,8.947950,0.0368230,0.49086842,129.9066,12/01.0/2023,2000,g  9.0,4.0
# From MPC 96866
P/2015 D6 (Lemmon-PANSTARRS),e,20.2179,45.7677,124.9576,7.130541,0.0517631,0.36195841,159.4852,12/01.0/2023,2000,g 10.5,4.0
# From MPEC 2021-P47
P/2015 HG16 (PANSTARRS),e,19.0005,57.0617,46.7857,4.801010,0.0936926,0.34988877,330.0253,12/01.0/2023,2000,g 12.5,4.0
# From MPC 95213
P/2015 K5 (PANSTARRS),e,39.9374,134.2589,106.2371,6.727595,0.0564826,0.55146894,175.5995,12/01.0/2023,2000,g 13.5,4.0
# From MPC107684
P/2015 M2 (PANSTARRS),e,3.9683,86.7032,225.9574,7.249540,0.0504938,0.17877388,151.6473,12/01.0/2023,2000,g  8.5,4.0
# From MPC 99819
P/2015 P4 (PANSTARRS),e,8.7198,104.7227,280.6671,6.046704,0.0662866,0.58574156,190.0058,12/01.0/2023,2000,g 14.0,4.0
# From MPEC 2022-K19
P/2015 PD229 (Cameron-ISON),e,2.0233,342.7270,352.7163,7.198996,0.0510266,0.32663441,154.5402,12/01.0/2023,2000,g 11.5,2.0
# From MPC 96867
P/2015 Q2 (Pimentel),e,146.5601,228.5622,244.6806,7.352619,0.0494357,0.75113732,148.5143,12/01.0/2023,2000,g 15.5,4.0
# From MPC 98562
P/2015 R1 (PANSTARRS),e,22.6889,48.3739,300.5523,5.881556,0.0690980,0.63386782,212.4317,12/01.0/2023,2000,g 14.0,4.0
# From MPC 95734
P/2015 R2 (PANSTARRS),e,15.4816,168.6145,149.8578,4.483639,0.1038145,0.45248320,320.4809,12/01.0/2023,2000,g 14.5,4.0
# From MPC102953
P/2015 TO19 (Lemmon-PANSTARRS),e,6.5035,321.6635,89.2311,4.549548,0.1015668,0.35967098,286.5527,12/01.0/2023,2000,g 14.0,4.0
# From MPC110080
P/2015 TP200 (LINEAR),e,8.7829,6.9865,82.4623,7.262438,0.0503594,0.53692822,130.2808,12/01.0/2023,2000,g 11.0,4.0
# From MPC101098
P/2015 W2 (Catalina),e,11.6137,294.1557,117.5742,7.290875,0.0500650,0.63559450,149.0611,12/01.0/2023,2000,g 13.0,4.0
# From MPEC 2023-J29
P/2015 X3 (PANSTARRS),e,24.4191,77.2564,306.8997,5.001553,0.0881144,0.44013504,266.8538,12/01.0/2023,2000,g 15.0,4.0
# From MPC115881
P/2015 X6 (PANSTARRS),e,4.5653,106.9379,329.8167,2.751438,0.2159556,0.17352115,246.0124,12/01.0/2023,2000,g 16.0,4.0
# From MPC100282
P/2016 A2 (Christensen),e,26.4053,291.5955,141.3169,4.753650,0.0950962,0.27121010,294.2019,12/01.0/2023,2000,g 11.5,4.0
# From MPEC 2022-OB6
P/2016 A3 (PANSTARRS),e,8.5134,187.1924,340.8381,7.874110,0.0446069,0.38624065,107.5401,12/01.0/2023,2000,g 10.0,4.0
# From MPC102098
P/2016 A7 (PANSTARRS),e,16.6084,221.4615,352.4906,5.036219,0.0872062,0.56530863,248.1768,12/01.0/2023,2000,g 16.0,4.0
# From MPEC 2021-P47
P/2016 G1 (PANSTARRS),e,10.9712,204.0163,111.1356,2.583621,0.2373345,0.21033398,233.6940,12/01.0/2023,2000,g 14.0,4.0
# From MPEC 2017-D91
P/2016 J1-A (PANSTARRS),e,14.3245,199.9163,47.4520,3.178848,0.1738999,0.22724754,112.4574,12/01.0/2023,2000,g 16.5,4.0
# From MPEC 2017-A77
P/2016 J1-B (PANSTARRS),e,14.3273,199.9216,47.3437,3.178489,0.1739294,0.22709390,112.6136,12/01.0/2023,2000,g 17.0,4.0
# From MPC102099
P/2016 P1 (PANSTARRS),e,24.3875,319.5457,270.5378,3.201369,0.1720681,0.28862651,155.3578,12/01.0/2023,2000,g 15.0,4.0
# From MPEC 2023-R20
C/2016 Q2 (PANSTARRS),h,05/12.4000/2021,109.3660,322.3269,84.5562,1.003297,7.081288,2000,6.0,4.0
# From MPEC 2022-K19
